[{"OBJECT_NAME":"OBJECT Y","OBJECT_ID":"2023-085Y","EPOCH":"2026-03-09T22:38:54.992256","MEAN_MOTION":15.32500153,"ECCENTRICITY":0.00063298,"INCLINATION":97.4849,"RA_OF_ASC_NODE":180.8653,"ARG_OF_PERICENTER":67.4431,"MEAN_ANOMALY":292.748,"EPHEMERIS_TYPE":0,"CLASSIFICATION_TYPE":"U","NORAD_CAT_ID":57026,"ELEMENT_SET_NO":999,"REV_AT_EPOCH":15160,"BSTAR":0.00065512761,"MEAN_MOTION_DOT":0.00020524,"MEAN_MOTION_DDOT":0},{"OBJECT_NAME":"STARLINK-30802","OBJECT_ID":"2023-166A","EPOCH":"2026-03-09T16:21:44.816544","MEAN_MOTION":15.30185512,"ECCENTRICITY":0.00010773,"INCLINATION":53.1605,"RA_OF_ASC_NODE":219.9521,"ARG_OF_PERICENTER":72.7242,"MEAN_ANOMALY":287.3877,"EPHEMERIS_TYPE":0,"CLASSIFICATION_TYPE":"U","NORAD_CAT_ID":58150,"ELEMENT_SET_NO":999,"REV_AT_EPOCH":13317,"BSTAR":2.4410895e-5,"MEAN_MOTION_DOT":3.64e-6,"MEAN_MOTION_DDOT":0}]
